{
  "type": "FeatureCollection",
  "features": {
    "type": "Feature",
    "geometry": {
      "type": "Polygon",
      "coordinates": [
        [
          [
            10752.3,
            10271.509999999998
          ],
          [
            10761.390000000001,
            10271.509999999998
          ],
          [
            10779.58,
            10271.509999999998
          ],
          [
            10779.58,
            10280.6
          ],
          [
            10788.67,
            10280.6
          ],
          [
            10806.85,
            10298.78
          ],
          [
            10834.12,
            10316.97
          ],
          [
            10861.39,
            10344.24
          ],
          [
            10888.67,
            10362.42
          ],
          [
            10897.76,
            10380.599999999999
          ],
          [
            10906.85,
            10380.599999999999
          ],
          [
            10925.029999999999,
            10398.78
          ],
          [
            10952.3,
            10426.06
          ],
          [
            10979.58,
            10453.33
          ],
          [
            10988.67,
            10471.51
          ],
          [
            10997.76,
            10471.51
          ],
          [
            11015.94,
            10489.689999999999
          ],
          [
            11043.210000000001,
            10498.78
          ],
          [
            11061.39,
            10498.78
          ],
          [
            11079.58,
            10498.78
          ],
          [
            11088.67,
            10498.78
          ],
          [
            11115.94,
            10498.78
          ],
          [
            11134.119999999999,
            10498.78
          ],
          [
            11179.58,
            10471.51
          ],
          [
            11197.76,
            10453.33
          ],
          [
            11225.03,
            10444.24
          ],
          [
            11252.3,
            10435.15
          ],
          [
            11279.58,
            10416.97
          ],
          [
            11297.76,
            10416.97
          ],
          [
            11315.939999999999,
            10416.97
          ],
          [
            11343.21,
            10407.880000000001
          ],
          [
            11361.39,
            10398.78
          ],
          [
            11370.480000000001,
            10398.78
          ],
          [
            11388.67,
            10398.78
          ],
          [
            11406.85,
            10398.78
          ],
          [
            11425.029999999999,
            10407.880000000001
          ],
          [
            11452.3,
            10407.880000000001
          ],
          [
            11488.67,
            10426.06
          ],
          [
            11497.76,
            10426.06
          ],
          [
            11534.119999999999,
            10435.15
          ],
          [
            11561.39,
            10435.15
          ],
          [
            11579.58,
            10435.15
          ],
          [
            11588.67,
            10435.15
          ],
          [
            11615.94,
            10435.15
          ],
          [
            11643.21,
            10444.24
          ],
          [
            11679.58,
            10453.33
          ],
          [
            11688.67,
            10453.33
          ],
          [
            11715.94,
            10453.33
          ],
          [
            11734.12,
            10453.33
          ],
          [
            11752.3,
            10444.24
          ],
          [
            11770.48,
            10435.15
          ],
          [
            11806.85,
            10416.97
          ],
          [
            11815.939999999999,
            10407.880000000001
          ],
          [
            11825.03,
            10407.880000000001
          ],
          [
            11834.12,
            10407.880000000001
          ],
          [
            11843.21,
            10407.880000000001
          ],
          [
            11879.58,
            10407.880000000001
          ],
          [
            11888.67,
            10407.880000000001
          ],
          [
            11897.76,
            10407.880000000001
          ],
          [
            11915.94,
            10407.880000000001
          ],
          [
            11934.12,
            10407.880000000001
          ],
          [
            11952.3,
            10407.880000000001
          ],
          [
            11979.58,
            10407.880000000001
          ],
          [
            11988.67,
            10416.97
          ],
          [
            12006.85,
            10435.15
          ],
          [
            12015.94,
            10453.33
          ],
          [
            12043.210000000001,
            10480.6
          ],
          [
            12079.58,
            10498.78
          ],
          [
            12079.58,
            10507.880000000001
          ],
          [
            12088.67,
            10507.880000000001
          ],
          [
            12097.759999999998,
            10507.880000000001
          ],
          [
            12115.94,
            10507.880000000001
          ],
          [
            12143.21,
            10507.880000000001
          ],
          [
            12170.48,
            10489.689999999999
          ],
          [
            12197.76,
            10471.51
          ],
          [
            12215.94,
            10462.42
          ],
          [
            12225.03,
            10453.33
          ],
          [
            12234.12,
            10444.24
          ],
          [
            12243.21,
            10426.06
          ],
          [
            12270.48,
            10426.06
          ],
          [
            12288.67,
            10407.880000000001
          ],
          [
            12297.76,
            10407.880000000001
          ],
          [
            12325.03,
            10389.69
          ],
          [
            12343.21,
            10380.599999999999
          ],
          [
            12370.480000000001,
            10353.33
          ],
          [
            12388.67,
            10335.15
          ],
          [
            12397.76,
            10326.06
          ],
          [
            12406.85,
            10316.97
          ],
          [
            12425.029999999999,
            10298.78
          ],
          [
            12434.12,
            10289.69
          ],
          [
            12443.210000000001,
            10271.509999999998
          ],
          [
            12452.3,
            10253.33
          ],
          [
            12461.39,
            10244.24
          ],
          [
            12461.39,
            10235.150000000001
          ],
          [
            12470.48,
            10226.06
          ],
          [
            12470.48,
            10216.97
          ],
          [
            12470.48,
            10207.88
          ],
          [
            12470.48,
            10171.51
          ],
          [
            12470.48,
            10153.33
          ],
          [
            12470.48,
            10144.24
          ],
          [
            12470.48,
            10135.15
          ],
          [
            12479.58,
            10116.97
          ],
          [
            12479.58,
            10107.88
          ],
          [
            12488.67,
            10089.689999999999
          ],
          [
            12488.67,
            10080.6
          ],
          [
            12488.67,
            10071.51
          ],
          [
            12515.94,
            10053.33
          ],
          [
            12525.029999999999,
            10035.15
          ],
          [
            12543.210000000001,
            10026.06
          ],
          [
            12561.39,
            10007.880000000001
          ],
          [
            12588.67,
            9998.78
          ],
          [
            12606.85,
            9989.689999999999
          ],
          [
            12615.94,
            9980.6
          ],
          [
            12625.03,
            9971.51
          ],
          [
            12634.119999999999,
            9953.33
          ],
          [
            12652.300000000001,
            9935.15
          ],
          [
            12670.48,
            9916.97
          ],
          [
            12679.58,
            9907.880000000001
          ],
          [
            12697.76,
            9889.69
          ],
          [
            12706.849999999999,
            9862.42
          ],
          [
            12734.12,
            9835.15
          ],
          [
            12734.12,
            9826.06
          ],
          [
            12734.12,
            9807.880000000001
          ],
          [
            12743.21,
            9798.78
          ],
          [
            12761.390000000001,
            9771.509999999998
          ],
          [
            12770.48,
            9744.24
          ],
          [
            12779.58,
            9726.06
          ],
          [
            12788.67,
            9716.97
          ],
          [
            12788.67,
            9707.88
          ],
          [
            12797.76,
            9689.69
          ],
          [
            12815.939999999999,
            9680.6
          ],
          [
            12815.939999999999,
            9662.419999999998
          ],
          [
            12825.03,
            9653.33
          ],
          [
            12834.12,
            9635.15
          ],
          [
            12843.21,
            9626.060000000001
          ],
          [
            12870.480000000001,
            9589.689999999999
          ],
          [
            12870.480000000001,
            9580.6
          ],
          [
            12879.58,
            9562.42
          ],
          [
            12879.58,
            9553.33
          ],
          [
            12888.67,
            9535.15
          ],
          [
            12888.67,
            9516.970000000001
          ],
          [
            12888.67,
            9507.880000000001
          ],
          [
            12888.67,
            9498.78
          ],
          [
            12906.85,
            9480.6
          ],
          [
            12915.94,
            9471.51
          ],
          [
            12925.029999999999,
            9471.51
          ],
          [
            12934.12,
            9462.42
          ],
          [
            12961.39,
            9444.24
          ],
          [
            12970.48,
            9444.24
          ],
          [
            12988.67,
            9444.24
          ],
          [
            13006.85,
            9444.24
          ],
          [
            13034.119999999999,
            9444.24
          ],
          [
            13052.300000000001,
            9435.15
          ],
          [
            13070.48,
            9435.15
          ],
          [
            13079.58,
            9435.15
          ],
          [
            13106.85,
            9435.15
          ],
          [
            13125.03,
            9435.15
          ],
          [
            13152.300000000001,
            9435.15
          ],
          [
            13179.58,
            9416.97
          ],
          [
            13206.849999999999,
            9398.78
          ],
          [
            13234.12,
            9389.69
          ],
          [
            13270.48,
            9371.51
          ],
          [
            13288.67,
            9362.42
          ],
          [
            13288.67,
            9353.33
          ],
          [
            13297.76,
            9344.24
          ],
          [
            13297.76,
            9326.06
          ],
          [
            13306.85,
            9298.78
          ],
          [
            13306.85,
            9289.69
          ],
          [
            13306.85,
            9271.509999999998
          ],
          [
            13306.85,
            9262.42
          ],
          [
            13297.76,
            9226.06
          ],
          [
            13297.76,
            9216.97
          ],
          [
            13297.76,
            9198.779999999999
          ],
          [
            13297.76,
            9171.51
          ],
          [
            13297.76,
            9153.33
          ],
          [
            13297.76,
            9126.060000000001
          ],
          [
            13297.76,
            9107.88
          ],
          [
            13306.85,
            9062.42
          ],
          [
            13315.939999999999,
            9035.15
          ],
          [
            13325.03,
            9007.880000000001
          ],
          [
            13325.03,
            8998.78
          ],
          [
            13343.21,
            8962.42
          ],
          [
            13361.39,
            8944.24
          ],
          [
            13379.58,
            8935.15
          ],
          [
            13388.67,
            8926.06
          ],
          [
            13406.85,
            8916.97
          ],
          [
            13415.94,
            8907.880000000001
          ],
          [
            13443.210000000001,
            8889.69
          ],
          [
            13470.48,
            8862.42
          ],
          [
            13488.67,
            8844.24
          ],
          [
            13506.85,
            8835.15
          ],
          [
            13525.029999999999,
            8826.06
          ],
          [
            13534.119999999999,
            8826.06
          ],
          [
            13579.58,
            8807.880000000001
          ],
          [
            13588.67,
            8789.69
          ],
          [
            13597.759999999998,
            8789.69
          ],
          [
            13615.94,
            8780.6
          ],
          [
            13643.21,
            8762.42
          ],
          [
            13661.390000000001,
            8753.33
          ],
          [
            13679.58,
            8735.150000000001
          ],
          [
            13706.849999999999,
            8707.88
          ],
          [
            13715.94,
            8689.69
          ],
          [
            13734.12,
            8662.419999999998
          ],
          [
            13743.21,
            8644.24
          ],
          [
            13752.3,
            8616.97
          ],
          [
            13761.390000000001,
            8598.779999999999
          ],
          [
            13770.48,
            8580.6
          ],
          [
            13779.58,
            8553.33
          ],
          [
            13788.67,
            8516.970000000001
          ],
          [
            13797.76,
            8498.78
          ],
          [
            13797.76,
            8471.51
          ],
          [
            13797.76,
            8453.33
          ],
          [
            13806.85,
            8426.06
          ],
          [
            13806.85,
            8407.880000000001
          ],
          [
            13806.85,
            8380.599999999999
          ],
          [
            13806.85,
            8371.51
          ],
          [
            13806.85,
            8335.15
          ],
          [
            13806.85,
            8307.880000000001
          ],
          [
            13806.85,
            8289.69
          ],
          [
            13806.85,
            8262.42
          ],
          [
            13797.76,
            8226.06
          ],
          [
            13797.76,
            8207.88
          ],
          [
            13797.76,
            8180.6
          ],
          [
            13788.67,
            8153.330000000001
          ],
          [
            13779.58,
            8144.24
          ],
          [
            13770.48,
            8144.24
          ],
          [
            13770.48,
            8135.15
          ],
          [
            13761.390000000001,
            8116.97
          ],
          [
            13752.3,
            8116.97
          ],
          [
            13743.21,
            8116.97
          ],
          [
            13725.03,
            8098.78
          ],
          [
            13697.76,
            8089.69
          ],
          [
            13679.58,
            8080.6
          ],
          [
            13661.390000000001,
            8062.419999999999
          ],
          [
            13643.21,
            8044.240000000001
          ],
          [
            13634.119999999999,
            8035.15
          ],
          [
            13615.94,
            8026.0599999999995
          ],
          [
            13606.85,
            8016.97
          ],
          [
            13597.759999999998,
            8007.88
          ],
          [
            13588.67,
            8007.88
          ],
          [
            13579.58,
            8007.88
          ],
          [
            13570.48,
            8007.88
          ],
          [
            13561.39,
            8007.88
          ],
          [
            13552.300000000001,
            8007.88
          ],
          [
            13543.210000000001,
            8007.88
          ],
          [
            13515.94,
            8007.88
          ],
          [
            13488.67,
            7998.78
          ],
          [
            13461.39,
            7989.6900000000005
          ],
          [
            13443.210000000001,
            7989.6900000000005
          ],
          [
            13425.029999999999,
            7980.6
          ],
          [
            13415.94,
            7971.51
          ],
          [
            13406.85,
            7971.51
          ],
          [
            13388.67,
            7971.51
          ],
          [
            13379.58,
            7971.51
          ],
          [
            13361.39,
            7962.42
          ],
          [
            13352.3,
            7962.42
          ],
          [
            13334.12,
            7962.42
          ],
          [
            13325.03,
            7962.42
          ],
          [
            13315.939999999999,
            7953.33
          ],
          [
            13306.85,
            7944.24
          ],
          [
            13279.58,
            7944.24
          ],
          [
            13261.390000000001,
            7935.150000000001
          ],
          [
            13243.21,
            7916.97
          ],
          [
            13215.94,
            7889.69
          ],
          [
            13197.76,
            7871.51
          ],
          [
            13188.67,
            7862.42
          ],
          [
            13179.58,
            7844.24
          ],
          [
            13161.390000000001,
            7816.97
          ],
          [
            13152.300000000001,
            7807.88
          ],
          [
            13143.21,
            7780.599999999999
          ],
          [
            13134.119999999999,
            7762.42
          ],
          [
            13125.03,
            7744.24
          ],
          [
            13115.94,
            7735.15
          ],
          [
            13106.85,
            7707.88
          ],
          [
            13079.58,
            7689.69
          ],
          [
            13052.300000000001,
            7671.509999999999
          ],
          [
            13034.119999999999,
            7653.330000000001
          ],
          [
            13015.94,
            7644.24
          ],
          [
            12997.76,
            7626.0599999999995
          ],
          [
            12988.67,
            7616.97
          ],
          [
            12961.39,
            7589.69
          ],
          [
            12943.210000000001,
            7571.51
          ],
          [
            12934.12,
            7562.42
          ],
          [
            12925.029999999999,
            7553.33
          ],
          [
            12915.94,
            7535.15
          ],
          [
            12915.94,
            7526.06
          ],
          [
            12906.85,
            7498.78
          ],
          [
            12897.76,
            7462.42
          ],
          [
            12897.76,
            7453.33
          ],
          [
            12897.76,
            7426.0599999999995
          ],
          [
            12897.76,
            7416.97
          ],
          [
            12897.76,
            7398.780000000001
          ],
          [
            12897.76,
            7380.6
          ],
          [
            12897.76,
            7353.33
          ],
          [
            12897.76,
            7335.15
          ],
          [
            12897.76,
            7316.97
          ],
          [
            12897.76,
            7298.78
          ],
          [
            12897.76,
            7280.599999999999
          ],
          [
            12888.67,
            7262.42
          ],
          [
            12870.480000000001,
            7244.24
          ],
          [
            12870.480000000001,
            7235.15
          ],
          [
            12861.39,
            7226.06
          ],
          [
            12861.39,
            7216.97
          ],
          [
            12843.21,
            7207.88
          ],
          [
            12834.12,
            7198.78
          ],
          [
            12815.939999999999,
            7189.69
          ],
          [
            12806.85,
            7171.509999999999
          ],
          [
            12788.67,
            7162.42
          ],
          [
            12779.58,
            7144.24
          ],
          [
            12761.390000000001,
            7135.150000000001
          ],
          [
            12734.12,
            7126.0599999999995
          ],
          [
            12715.94,
            7116.97
          ],
          [
            12697.76,
            7107.88
          ],
          [
            12679.58,
            7089.69
          ],
          [
            12652.300000000001,
            7080.599999999999
          ],
          [
            12643.21,
            7071.51
          ],
          [
            12625.03,
            7071.51
          ],
          [
            12606.85,
            7062.42
          ],
          [
            12597.759999999998,
            7044.240000000001
          ],
          [
            12552.300000000001,
            7035.15
          ],
          [
            12534.119999999999,
            7026.06
          ],
          [
            12506.85,
            7026.06
          ],
          [
            12488.67,
            7016.969999999999
          ],
          [
            12470.48,
            7016.969999999999
          ],
          [
            12452.3,
            7007.88
          ],
          [
            12415.94,
            6998.78
          ],
          [
            12388.67,
            6989.6900000000005
          ],
          [
            12361.39,
            6989.6900000000005
          ],
          [
            12343.21,
            6989.6900000000005
          ],
          [
            12334.12,
            6989.6900000000005
          ],
          [
            12315.939999999999,
            6980.6
          ],
          [
            12297.76,
            6980.6
          ],
          [
            12270.48,
            6980.6
          ],
          [
            12243.21,
            6980.6
          ],
          [
            12234.12,
            6980.6
          ],
          [
            12170.48,
            6980.6
          ],
          [
            12088.67,
            6989.6900000000005
          ],
          [
            12079.58,
            6989.6900000000005
          ],
          [
            12070.48,
            6989.6900000000005
          ],
          [
            11943.210000000001,
            7080.599999999999
          ],
          [
            11925.029999999999,
            7089.69
          ],
          [
            11915.94,
            7098.78
          ],
          [
            11888.67,
            7126.0599999999995
          ],
          [
            11870.480000000001,
            7135.150000000001
          ],
          [
            11834.12,
            7180.6
          ],
          [
            11806.85,
            7207.88
          ],
          [
            11788.67,
            7226.06
          ],
          [
            11770.48,
            7253.33
          ],
          [
            11752.3,
            7262.42
          ],
          [
            11743.21,
            7289.6900000000005
          ],
          [
            11715.94,
            7316.97
          ],
          [
            11688.67,
            7344.24
          ],
          [
            11679.58,
            7362.42
          ],
          [
            11670.48,
            7371.51
          ],
          [
            11661.390000000001,
            7389.69
          ],
          [
            11643.21,
            7407.879999999999
          ],
          [
            11634.119999999999,
            7416.97
          ],
          [
            11625.03,
            7435.150000000001
          ],
          [
            11606.85,
            7462.42
          ],
          [
            11588.67,
            7489.6900000000005
          ],
          [
            11579.58,
            7507.88
          ],
          [
            11552.300000000001,
            7526.06
          ],
          [
            11525.029999999999,
            7553.33
          ],
          [
            11506.85,
            7562.42
          ],
          [
            11488.67,
            7580.599999999999
          ],
          [
            11479.58,
            7580.599999999999
          ],
          [
            11461.39,
            7598.78
          ],
          [
            11425.029999999999,
            7626.0599999999995
          ],
          [
            11388.67,
            7626.0599999999995
          ],
          [
            11379.58,
            7626.0599999999995
          ],
          [
            11361.39,
            7626.0599999999995
          ],
          [
            11334.12,
            7626.0599999999995
          ],
          [
            11315.939999999999,
            7626.0599999999995
          ],
          [
            11306.85,
            7626.0599999999995
          ],
          [
            11288.67,
            7626.0599999999995
          ],
          [
            11252.3,
            7626.0599999999995
          ],
          [
            11243.21,
            7626.0599999999995
          ],
          [
            11225.03,
            7626.0599999999995
          ],
          [
            11188.67,
            7644.24
          ],
          [
            11143.21,
            7653.330000000001
          ],
          [
            11106.85,
            7680.6
          ],
          [
            11088.67,
            7680.6
          ],
          [
            11088.67,
            7689.69
          ],
          [
            11079.58,
            7689.69
          ],
          [
            11061.39,
            7716.97
          ],
          [
            11043.210000000001,
            7744.24
          ],
          [
            11034.119999999999,
            7753.33
          ],
          [
            11025.029999999999,
            7780.599999999999
          ],
          [
            11015.94,
            7798.78
          ],
          [
            11015.94,
            7826.06
          ],
          [
            11015.94,
            7835.15
          ],
          [
            11015.94,
            7844.24
          ],
          [
            10988.67,
            7871.51
          ],
          [
            10979.58,
            7880.6
          ],
          [
            10970.48,
            7898.780000000001
          ],
          [
            10961.39,
            7898.780000000001
          ],
          [
            10943.210000000001,
            7907.879999999999
          ],
          [
            10934.12,
            7916.97
          ],
          [
            10925.029999999999,
            7916.97
          ],
          [
            10925.029999999999,
            7926.0599999999995
          ],
          [
            10897.76,
            7944.24
          ],
          [
            10870.480000000001,
            7971.51
          ],
          [
            10843.21,
            8007.88
          ],
          [
            10815.939999999999,
            8044.240000000001
          ],
          [
            10806.85,
            8062.419999999999
          ],
          [
            10797.76,
            8080.6
          ],
          [
            10788.67,
            8098.78
          ],
          [
            10788.67,
            8126.06
          ],
          [
            10788.67,
            8135.15
          ],
          [
            10788.67,
            8144.24
          ],
          [
            10788.67,
            8162.419999999999
          ],
          [
            10788.67,
            8189.6900000000005
          ],
          [
            10797.76,
            8207.88
          ],
          [
            10797.76,
            8216.97
          ],
          [
            10797.76,
            8226.06
          ],
          [
            10806.85,
            8235.150000000001
          ],
          [
            10806.85,
            8262.42
          ],
          [
            10806.85,
            8280.6
          ],
          [
            10815.939999999999,
            8298.78
          ],
          [
            10815.939999999999,
            8316.97
          ],
          [
            10815.939999999999,
            8326.06
          ],
          [
            10815.939999999999,
            8335.15
          ],
          [
            10815.939999999999,
            8353.33
          ],
          [
            10806.85,
            8362.42
          ],
          [
            10797.76,
            8380.599999999999
          ],
          [
            10788.67,
            8398.78
          ],
          [
            10788.67,
            8407.880000000001
          ],
          [
            10788.67,
            8426.06
          ],
          [
            10779.58,
            8435.15
          ],
          [
            10752.3,
            8453.33
          ],
          [
            10734.12,
            8471.51
          ],
          [
            10725.03,
            8489.689999999999
          ],
          [
            10725.03,
            8498.78
          ],
          [
            10715.94,
            8498.78
          ],
          [
            10670.48,
            8553.33
          ],
          [
            10661.390000000001,
            8571.51
          ],
          [
            10661.390000000001,
            8580.6
          ],
          [
            10661.390000000001,
            8598.779999999999
          ],
          [
            10661.390000000001,
            8607.88
          ],
          [
            10643.21,
            8644.24
          ],
          [
            10625.03,
            8662.419999999998
          ],
          [
            10615.94,
            8689.69
          ],
          [
            10606.85,
            8698.779999999999
          ],
          [
            10597.759999999998,
            8716.97
          ],
          [
            10588.67,
            8726.06
          ],
          [
            10579.58,
            8744.24
          ],
          [
            10579.58,
            8753.33
          ],
          [
            10570.48,
            8771.509999999998
          ],
          [
            10561.39,
            8789.69
          ],
          [
            10561.39,
            8807.880000000001
          ],
          [
            10552.300000000001,
            8816.97
          ],
          [
            10552.300000000001,
            8835.15
          ],
          [
            10552.300000000001,
            8844.24
          ],
          [
            10552.300000000001,
            8853.33
          ],
          [
            10561.39,
            8871.51
          ],
          [
            10561.39,
            8889.69
          ],
          [
            10534.119999999999,
            8916.97
          ],
          [
            10525.029999999999,
            8944.24
          ],
          [
            10470.48,
            8998.78
          ],
          [
            10461.39,
            9007.880000000001
          ],
          [
            10443.210000000001,
            9035.15
          ],
          [
            10425.029999999999,
            9053.33
          ],
          [
            10415.94,
            9080.6
          ],
          [
            10397.76,
            9098.779999999999
          ],
          [
            10370.480000000001,
            9126.060000000001
          ],
          [
            10361.39,
            9144.24
          ],
          [
            10352.3,
            9162.419999999998
          ],
          [
            10334.12,
            9189.69
          ],
          [
            10325.03,
            9207.88
          ],
          [
            10325.03,
            9226.06
          ],
          [
            10315.939999999999,
            9226.06
          ],
          [
            10315.939999999999,
            9235.150000000001
          ],
          [
            10306.85,
            9253.33
          ],
          [
            10306.85,
            9262.42
          ],
          [
            10325.03,
            9271.509999999998
          ],
          [
            10343.21,
            9271.509999999998
          ],
          [
            10352.3,
            9280.6
          ],
          [
            10361.39,
            9280.6
          ],
          [
            10370.480000000001,
            9280.6
          ],
          [
            10379.58,
            9289.69
          ],
          [
            10406.85,
            9298.78
          ],
          [
            10434.12,
            9316.97
          ],
          [
            10443.210000000001,
            9335.15
          ],
          [
            10452.3,
            9335.15
          ],
          [
            10461.39,
            9344.24
          ],
          [
            10470.48,
            9371.51
          ],
          [
            10470.48,
            9380.599999999999
          ],
          [
            10470.48,
            9389.69
          ],
          [
            10470.48,
            9398.78
          ],
          [
            10470.48,
            9407.880000000001
          ],
          [
            10470.48,
            9426.06
          ],
          [
            10470.48,
            9435.15
          ],
          [
            10461.39,
            9435.15
          ],
          [
            10452.3,
            9444.24
          ],
          [
            10443.210000000001,
            9453.33
          ],
          [
            10425.029999999999,
            9471.51
          ],
          [
            10425.029999999999,
            9480.6
          ],
          [
            10415.94,
            9489.689999999999
          ],
          [
            10415.94,
            9498.78
          ],
          [
            10406.85,
            9516.970000000001
          ],
          [
            10397.76,
            9535.15
          ],
          [
            10388.67,
            9553.33
          ],
          [
            10388.67,
            9571.51
          ],
          [
            10379.58,
            9580.6
          ],
          [
            10370.480000000001,
            9580.6
          ],
          [
            10361.39,
            9580.6
          ],
          [
            10361.39,
            9589.689999999999
          ],
          [
            10361.39,
            9607.88
          ],
          [
            10361.39,
            9616.97
          ],
          [
            10361.39,
            9626.060000000001
          ],
          [
            10361.39,
            9644.24
          ],
          [
            10361.39,
            9653.33
          ],
          [
            10361.39,
            9662.419999999998
          ],
          [
            10352.3,
            9671.51
          ],
          [
            10352.3,
            9689.69
          ],
          [
            10352.3,
            9698.779999999999
          ],
          [
            10352.3,
            9707.88
          ],
          [
            10352.3,
            9716.97
          ],
          [
            10361.39,
            9726.06
          ],
          [
            10370.480000000001,
            9753.33
          ],
          [
            10379.58,
            9771.509999999998
          ],
          [
            10388.67,
            9780.6
          ],
          [
            10388.67,
            9789.69
          ],
          [
            10397.76,
            9789.69
          ],
          [
            10415.94,
            9816.97
          ],
          [
            10434.12,
            9844.24
          ],
          [
            10452.3,
            9862.42
          ],
          [
            10461.39,
            9880.599999999999
          ],
          [
            10470.48,
            9889.69
          ],
          [
            10479.58,
            9916.97
          ],
          [
            10506.85,
            9944.24
          ],
          [
            10525.029999999999,
            9971.51
          ],
          [
            10534.119999999999,
            9989.689999999999
          ],
          [
            10534.119999999999,
            10007.880000000001
          ],
          [
            10534.119999999999,
            10016.970000000001
          ],
          [
            10534.119999999999,
            10035.15
          ],
          [
            10534.119999999999,
            10044.24
          ],
          [
            10534.119999999999,
            10053.33
          ],
          [
            10534.119999999999,
            10062.42
          ],
          [
            10534.119999999999,
            10071.51
          ],
          [
            10534.119999999999,
            10080.6
          ],
          [
            10534.119999999999,
            10089.689999999999
          ],
          [
            10534.119999999999,
            10107.88
          ],
          [
            10534.119999999999,
            10116.97
          ],
          [
            10543.210000000001,
            10116.97
          ],
          [
            10552.300000000001,
            10126.060000000001
          ],
          [
            10570.48,
            10153.33
          ],
          [
            10606.85,
            10189.69
          ],
          [
            10643.21,
            10216.97
          ],
          [
            10670.48,
            10235.150000000001
          ],
          [
            10688.67,
            10253.33
          ],
          [
            10706.849999999999,
            10253.33
          ],
          [
            10715.94,
            10262.42
          ],
          [
            10725.03,
            10262.42
          ],
          [
            10743.21,
            10271.509999999998
          ],
          [
            10752.3,
            10271.509999999998
          ],
          [
            10752.3,
            10262.42
          ],
          [
            10779.58,
            10216.97
          ],
          [
            10797.76,
            10198.779999999999
          ]
        ]
      ]
    },
    "properties": {
      "object_type": "annotation",
      "isLocked": false
    }
  }
}